CS1                     
1 49261U 21088B   26068.75173904  .00015722  00000+0  51176-3 0  9998
2 49261  97.3882 132.1684 0014129  78.0335 282.2490 15.31848439245182
STARLINK-35192          
1 65933U 25225Z   26068.49140679  .00021620  00000+0  74029-3 0  9999
2 65933  53.1576 166.8921 0001231  72.4318 287.6817 15.30184746 24374
